{"type": "FeatureCollection", "features": [ {"type": "Feature", "properties": {"norad_id": 35809, "name": "IRIDIUM 33 DEB", "group": "iridium-33-debris", "lat": -15.301586270974076, "lon": 161.62452956359684, "alt_km": 650.2384082196932, "timestamp": "2025-12-01T03:58:49.184390+00:00", "meta": {"OBJECT_NAME": "IRIDIUM 33 DEB", "OBJECT_ID": "1997-051ST", "EPOCH": "2025-11-29T07:08:39.420672", "MEAN_MOTION": 14.75253236, "ECCENTRICITY": 0.00101608, "INCLINATION": 86.3284, "RA_OF_ASC_NODE": 341.4676, "ARG_OF_PERICENTER": 301.0769, "MEAN_ANOMALY": 58.9452, "EPHEMERIS_TYPE": 0, "CLASSIFICATION_TYPE": "U", "NORAD_CAT_ID": 35809, "ELEMENT_SET_NO": 999, "REV_AT_EPOCH": 86609, "BSTAR": 0.0015716813, "MEAN_MOTION_DOT": 0.0001067, "MEAN_MOTION_DDOT": 0, "GROUP": "iridium-33-debris"}, "tle": {"line1": "1 35809U 97051ST  25333.29767848  .00010670  00000+0  15717-2 0  9990", "line2": "2 35809  86.3284 341.4676 0010160 301.0769  58.9452 14.75253236866093"}}, "geometry": {"type": "Point", "coordinates": [161.62452956359684, -15.301586270974076]}}, {"type": "Feature", "properties": {"norad_id": 35846, "name": "IRIDIUM 33 DEB", "group": "iridium-33-debris", "lat": -64.32097104260872, "lon": -108.64455725238408, "alt_km": 745.787504296628, "timestamp": "2025-12-01T03:58:49.184401+00:00", "meta": {"OBJECT_NAME": "IRIDIUM 33 DEB", "OBJECT_ID": "1997-051SW", "EPOCH": "2025-11-15T14:04:07.017312", "MEAN_MOTION": 14.42992821, "ECCENTRICITY": 0.00163082, "INCLINATION": 86.3745, "RA_OF_ASC_NODE": 70.4244, "ARG_OF_PERICENTER": 263.1259, "MEAN_ANOMALY": 96.8086, "EPHEMERIS_TYPE": 0, "CLASSIFICATION_TYPE": "U", "NORAD_CAT_ID": 35846, "ELEMENT_SET_NO": 999, "REV_AT_EPOCH": 70937, "BSTAR": 0.0011049939, "MEAN_MOTION_DOT": 3.722e-05, "MEAN_MOTION_DDOT": 0, "GROUP": "iridium-33-debris"}, "tle": {"line1": "1 35846U 97051SW  25319.58619233  .00003722  00000+0  11050-2 0  9997", "line2": "2 35846  86.3745  70.4244 0016308 263.1259  96.8086 14.42992821709373"}}, "geometry": {"type": "Point", "coordinates": [-108.64455725238408, -64.32097104260872]}}, {"type": "Feature", "properties": {"norad_id": 35848, "name": "IRIDIUM 33 DEB", "group": "iridium-33-debris", "lat": 25.6884207365202, "lon": 23.06619070925635, "alt_km": 638.3031755413149, "timestamp": "2025-12-01T03:58:49.184410+00:00", "meta": {"OBJECT_NAME": "IRIDIUM 33 DEB", "OBJECT_ID": "1997-051SY", "EPOCH": "2025-11-30T09:59:35.010816", "MEAN_MOTION": 14.78212744, "ECCENTRICITY": 0.00066657, "INCLINATION": 86.3897, "RA_OF_ASC_NODE": 21.6626, "ARG_OF_PERICENTER": 236.9102, "MEAN_ANOMALY": 123.1479, "EPHEMERIS_TYPE": 0, "CLASSIFICATION_TYPE": "U", "NORAD_CAT_ID": 35848, "ELEMENT_SET_NO": 999, "REV_AT_EPOCH": 66508, "BSTAR": 0.0017622441, "MEAN_MOTION_DOT": 0.00012814, "MEAN_MOTION_DDOT": 0, "GROUP": "iridium-33-debris"}, "tle": {"line1": "1 35848U 97051SY  25334.41637744  .00012814  00000+0  17622-2 0  9998", "line2": "2 35848  86.3897  21.6626 0006665 236.9102 123.1479 14.78212744665082"}}, "geometry": {"type": "Point", "coordinates": [23.06619070925635, 25.6884207365202]}}, {"type": "Feature", "properties": {"norad_id": 35850, "name": "IRIDIUM 33 DEB", "group": "iridium-33-debris", "lat": -16.442297520347502, "lon": -11.549969777996708, "alt_km": 637.9602626098895, "timestamp": "2025-12-01T03:58:49.184422+00:00", "meta": {"OBJECT_NAME": "IRIDIUM 33 DEB", "OBJECT_ID": "1997-051TA", "EPOCH": "2025-11-29T19:33:54.879264", "MEAN_MOTION": 14.7835992, "ECCENTRICITY": 0.00079569, "INCLINATION": 86.3607, "RA_OF_ASC_NODE": 350.1382, "ARG_OF_PERICENTER": 273.0925, "MEAN_ANOMALY": 86.9385, "EPHEMERIS_TYPE": 0, "CLASSIFICATION_TYPE": "U", "NORAD_CAT_ID": 35850, "ELEMENT_SET_NO": 999, "REV_AT_EPOCH": 71166, "BSTAR": 0.0016516893, "MEAN_MOTION_DOT": 0.00012054, "MEAN_MOTION_DDOT": 0, "GROUP": "iridium-33-debris"}, "tle": {"line1": "1 35850U 97051TA  25333.81521851  .00012054  00000+0  16517-2 0  9993", "line2": "2 35850  86.3607 350.1382 0007956 273.0925  86.9385 14.78359920711668"}}, "geometry": {"type": "Point", "coordinates": [-11.549969777996708, -16.442297520347502]}}, {"type": "Feature", "properties": {"norad_id": 35915, "name": "IRIDIUM 33 DEB", "group": "iridium-33-debris", "lat": -25.038905632713902, "lon": 169.95639665750585, "alt_km": 628.4273838008248, "timestamp": "2025-12-01T03:58:49.184433+00:00", "meta": {"OBJECT_NAME": "IRIDIUM 33 DEB", "OBJECT_ID": "1997-051TY", "EPOCH": "2025-11-29T18:36:27.885600", "MEAN_MOTION": 14.80216101, "ECCENTRICITY": 0.00095149, "INCLINATION": 86.3455, "RA_OF_ASC_NODE": 348.88, "ARG_OF_PERICENTER": 239.0414, "MEAN_ANOMALY": 120.9873, "EPHEMERIS_TYPE": 0, "CLASSIFICATION_TYPE": "U", "NORAD_CAT_ID": 35915, "ELEMENT_SET_NO": 999, "REV_AT_EPOCH": 7894, "BSTAR": 0.0016763854, "MEAN_MOTION_DOT": 0.00012787, "MEAN_MOTION_DDOT": 0, "GROUP": "iridium-33-debris"}, "tle": {"line1": "1 35915U 97051TY  25333.77532275  .00012787  00000+0  16764-2 0  9999", "line2": "2 35915  86.3455 348.8800 0009514 239.0414 120.9873 14.80216101 78941"}}, "geometry": {"type": "Point", "coordinates": [169.95639665750585, -25.038905632713902]}}, {"type": "Feature", "properties": {"norad_id": 35918, "name": "IRIDIUM 33 DEB", "group": "iridium-33-debris", "lat": 39.50304274533306, "lon": -102.19333601102954, "alt_km": 711.9806555938594, "timestamp": "2025-12-01T03:58:49.184443+00:00", "meta": {"OBJECT_NAME": "IRIDIUM 33 DEB", "OBJECT_ID": "1997-051UB", "EPOCH": "2025-11-30T01:41:55.281408", "MEAN_MOTION": 14.51050885, "ECCENTRICITY": 0.00264066, "INCLINATION": 86.4001, "RA_OF_ASC_NODE": 81.2516, "ARG_OF_PERICENTER": 211.3482, "MEAN_ANOMALY": 332.4953, "EPHEMERIS_TYPE": 0, "CLASSIFICATION_TYPE": "U", "NORAD_CAT_ID": 35918, "ELEMENT_SET_NO": 999, "REV_AT_EPOCH": 85023, "BSTAR": 0.0014523463, "MEAN_MOTION_DOT": 5.795e-05, "MEAN_MOTION_DDOT": 0, "GROUP": "iridium-33-debris"}, "tle": {"line1": "1 35918U 97051UB  25334.07077872  .00005795  00000+0  14523-2 0  9995", "line2": "2 35918  86.4001  81.2516 0026406 211.3482 332.4953 14.51050885850233"}}, "geometry": {"type": "Point", "coordinates": [-102.19333601102954, 39.50304274533306]}}, {"type": "Feature", "properties": {"norad_id": 35929, "name": "IRIDIUM 33 DEB", "group": "iridium-33-debris", "lat": -55.68957547047748, "lon": -47.27832481472963, "alt_km": 577.6402234163952, "timestamp": "2025-12-01T03:58:49.184454+00:00", "meta": {"OBJECT_NAME": "IRIDIUM 33 DEB", "OBJECT_ID": "1997-051UN", "EPOCH": "2025-11-27T17:01:59.354400", "MEAN_MOTION": 15.00968611, "ECCENTRICITY": 0.00195154, "INCLINATION": 86.3343, "RA_OF_ASC_NODE": 319.7465, "ARG_OF_PERICENTER": 79.3488, "MEAN_ANOMALY": 280.9941, "EPHEMERIS_TYPE": 0, "CLASSIFICATION_TYPE": "U", "NORAD_CAT_ID": 35929, "ELEMENT_SET_NO": 999, "REV_AT_EPOCH": 87554, "BSTAR": 0.002585504, "MEAN_MOTION_DOT": 0.00033236, "MEAN_MOTION_DDOT": 0, "GROUP": "iridium-33-debris"}, "tle": {"line1": "1 35929U 97051UN  25331.70971475  .00033236  00000+0  25855-2 0  9997", "line2": "2 35929  86.3343 319.7465 0019515  79.3488 280.9941 15.00968611875541"}}, "geometry": {"type": "Point", "coordinates": [-47.27832481472963, -55.68957547047748]}}, {"type": "Feature", "properties": {"norad_id": 36011, "name": "IRIDIUM 33 DEB", "group": "iridium-33-debris", "lat": -60.57580203523278, "lon": -133.0921282864754, "alt_km": 750.1901529148963, "timestamp": "2025-12-01T03:58:49.184464+00:00", "meta": {"OBJECT_NAME": "IRIDIUM 33 DEB", "OBJECT_ID": "1997-051US", "EPOCH": "2025-11-27T22:48:02.153088", "MEAN_MOTION": 14.41259363, "ECCENTRICITY": 0.0016688, "INCLINATION": 86.3418, "RA_OF_ASC_NODE": 41.7752, "ARG_OF_PERICENTER": 268.8947, "MEAN_ANOMALY": 217.0188, "EPHEMERIS_TYPE": 0, "CLASSIFICATION_TYPE": "U", "NORAD_CAT_ID": 36011, "ELEMENT_SET_NO": 999, "REV_AT_EPOCH": 64327, "BSTAR": 0.00058853, "MEAN_MOTION_DOT": 1.923e-05, "MEAN_MOTION_DDOT": 0, "GROUP": "iridium-33-debris"}, "tle": {"line1": "1 36011U 97051US  25331.95002492  .00001923  00000+0  58853-3 0  9994", "line2": "2 36011  86.3418  41.7752 0016688 268.8947 217.0188 14.41259363643279"}}, "geometry": {"type": "Point", "coordinates": [-133.0921282864754, -60.57580203523278]}}, {"type": "Feature", "properties": {"norad_id": 36012, "name": "IRIDIUM 33 DEB", "group": "iridium-33-debris", "lat": 28.566180340381596, "lon": -45.857808949333396, "alt_km": 821.4297021991624, "timestamp": "2025-12-01T03:58:49.184474+00:00", "meta": {"OBJECT_NAME": "IRIDIUM 33 DEB", "OBJECT_ID": "1997-051UT", "EPOCH": "2025-11-30T09:13:21.766944", "MEAN_MOTION": 14.18317732, "ECCENTRICITY": 0.02146731, "INCLINATION": 86.4437, "RA_OF_ASC_NODE": 312.5163, "ARG_OF_PERICENTER": 303.0455, "MEAN_ANOMALY": 55.0272, "EPHEMERIS_TYPE": 0, "CLASSIFICATION_TYPE": "U", "NORAD_CAT_ID": 36012, "ELEMENT_SET_NO": 999, "REV_AT_EPOCH": 65309, "BSTAR": 0.0080758053, "MEAN_MOTION_DOT": 0.00020957, "MEAN_MOTION_DDOT": 0, "GROUP": "iridium-33-debris"}, "tle": {"line1": "1 36012U 97051UT  25334.38427971  .00020957  00000+0  80758-2 0  9994", "line2": "2 36012  86.4437 312.5163 0214673 303.0455  55.0272 14.18317732653091"}}, "geometry": {"type": "Point", "coordinates": [-45.857808949333396, 28.566180340381596]}}]}